CTC1_L_00420001-01
1 75166U 26635LP  26037.47805556  .00000000  00000+0  00000-0 0  9994
2 75166  75.0000   0.0000 0000000   0.0000   0.0000 12.65579224    13
CTC1_L_00420001-02
1 75167U 24367EI  26037.47805556  .00000000  00000+0  00000-0 0  9995
2 75167  75.0000   0.0000 0000000   0.0000  90.0000 12.65579224    13
CTC1_L_00420001-03
1 75168U 23404AW  26037.47805556  .00000000  00000+0  00000-0 0  9997
2 75168  75.0000   0.0000 0000000   0.0000 180.0000 12.65579224    14
CTC1_L_00420001-04
1 75169U 24973YD  26037.47805556  .00000000  00000+0  00000-0 0  9990
2 75169  75.0000   0.0000 0000000   0.0000 270.0000 12.65579224    15
CTC1_L_00420002-01
1 75170U 23413PE  26037.47805556  .00000000  00000+0  00000-0 0  9990
2 75170  75.0000  12.0000 0000000   0.0000  12.0000 12.65579224    14
CTC1_L_00420002-02
1 75171U 23768JJ  26037.47805556  .00000000  00000+0  00000-0 0  9994
2 75171  75.0000  12.0000 0000000   0.0000 102.0000 12.65579224    15
CTC1_L_00420002-03
1 75172U 23564EV  26037.47805556  .00000000  00000+0  00000-0 0  9999
2 75172  75.0000  12.0000 0000000   0.0000 192.0000 12.65579224    15
CTC1_L_00420002-04
1 75173U 26607DB  26037.47805556  .00000000  00000+0  00000-0 0  9991
2 75173  75.0000  12.0000 0000000   0.0000 282.0000 12.65579224    16
CTC1_L_00420003-01
1 75174U 22998NR  26037.47805556  .00000000  00000+0  00000-0 0  9991
2 75174  75.0000  24.0000 0000000   0.0000  24.0000 12.65579224    14
CTC1_L_00420003-02
1 75175U 22996MX  26037.47805556  .00000000  00000+0  00000-0 0  9990
2 75175  75.0000  24.0000 0000000   0.0000 114.0000 12.65579224    15
CTC1_L_00420003-03
1 75176U 22338PJ  26037.47805556  .00000000  00000+0  00000-0 0  9991
2 75176  75.0000  24.0000 0000000   0.0000 204.0000 12.65579224    16
CTC1_L_00420003-04
1 75177U 26572LV  26037.47805556  .00000000  00000+0  00000-0 0  9996
2 75177  75.0000  24.0000 0000000   0.0000 294.0000 12.65579224    16
CTC1_L_00420004-01
1 75178U 24262OP  26037.47805556  .00000000  00000+0  00000-0 0  9991
2 75178  75.0000  36.0000 0000000   0.0000  36.0000 12.65579224    14
CTC1_L_00420004-02
1 75179U 22672EO  26037.47805556  .00000000  00000+0  00000-0 0  9995
2 75179  75.0000  36.0000 0000000   0.0000 126.0000 12.65579224    15
CTC1_L_00420004-03
1 75180U 25045GV  26037.47805556  .00000000  00000+0  00000-0 0  9994
2 75180  75.0000  36.0000 0000000   0.0000 216.0000 12.65579224    17
CTC1_L_00420004-04
1 75181U 22410SX  26037.47805556  .00000000  00000+0  00000-0 0  9998
2 75181  75.0000  36.0000 0000000   0.0000 306.0000 12.65579224    18
CTC1_L_00420005-01
1 75182U 26773A   26037.47805556  .00000000  00000+0  00000-0 0  9995
2 75182  75.0000  48.0000 0000000   0.0000  48.0000 12.65579224    15
CTC1_L_00420005-02
1 75183U 24345NI  26037.47805556  .00000000  00000+0  00000-0 0  9999
2 75183  75.0000  48.0000 0000000   0.0000 138.0000 12.65579224    16
CTC1_L_00420005-03
1 75184U 25139RC  26037.47805556  .00000000  00000+0  00000-0 0  9992
2 75184  75.0000  48.0000 0000000   0.0000 228.0000 12.65579224    17
CTC1_L_00420005-04
1 75185U 22541QW  26037.47805556  .00000000  00000+0  00000-0 0  9997
2 75185  75.0000  48.0000 0000000   0.0000 318.0000 12.65579224    18
CTC1_L_00420006-01
1 75186U 24125FY  26037.47805556  .00000000  00000+0  00000-0 0  9998
2 75186  75.0000  60.0000 0000000   0.0000  60.0000 12.65579224    17
CTC1_L_00420006-02
1 75187U 23481PF  26037.47805556  .00000000  00000+0  00000-0 0  9993
2 75187  75.0000  60.0000 0000000   0.0000 150.0000 12.65579224    18
CTC1_L_00420006-03
1 75188U 24446ZD  26037.47805556  .00000000  00000+0  00000-0 0  9996
2 75188  75.0000  60.0000 0000000   0.0000 240.0000 12.65579224    19
CTC1_L_00420006-04
1 75189U 24415WI  26037.47805556  .00000000  00000+0  00000-0 0  9993
2 75189  75.0000  60.0000 0000000   0.0000 330.0000 12.65579224    10
CTC1_L_00420007-01
1 75190U 23179SX  26037.47805556  .00000000  00000+0  00000-0 0  9991
2 75190  75.0000  72.0000 0000000   0.0000  72.0000 12.65579224    18
CTC1_L_00420007-02
1 75191U 24116NM  26037.47805556  .00000000  00000+0  00000-0 0  9994
2 75191  75.0000  72.0000 0000000   0.0000 162.0000 12.65579224    19
CTC1_L_00420007-03
1 75192U 22373NU  26037.47805556  .00000000  00000+0  00000-0 0  9998
2 75192  75.0000  72.0000 0000000   0.0000 252.0000 12.65579224    10
CTC1_L_00420007-04
1 75193U 23869UY  26037.47805556  .00000000  00000+0  00000-0 0  9990
2 75193  75.0000  72.0000 0000000   0.0000 342.0000 12.65579224    11
CTC1_L_00420008-01
1 75194U 23391DC  26037.47805556  .00000000  00000+0  00000-0 0  9991
2 75194  75.0000  84.0000 0000000   0.0000  84.0000 12.65579224    18
CTC1_L_00420008-02
1 75195U 24434TO  26037.47805556  .00000000  00000+0  00000-0 0  9991
2 75195  75.0000  84.0000 0000000   0.0000 174.0000 12.65579224    19
CTC1_L_00420008-03
1 75196U 25808IG  26037.47805556  .00000000  00000+0  00000-0 0  9998
2 75196  75.0000  84.0000 0000000   0.0000 264.0000 12.65579224    10
CTC1_L_00420008-04
1 75197U 24854FR  26037.47805556  .00000000  00000+0  00000-0 0  9999
2 75197  75.0000  84.0000 0000000   0.0000 354.0000 12.65579224    11
CTC1_L_00420009-01
1 75198U 25839NE  26037.47805556  .00000000  00000+0  00000-0 0  9994
2 75198  75.0000  96.0000 0000000   0.0000  96.0000 12.65579224    18
CTC1_L_00420009-02
1 75199U 24514US  26037.47805556  .00000000  00000+0  00000-0 0  9994
2 75199  75.0000  96.0000 0000000   0.0000 186.0000 12.65579224    19
CTC1_L_00420009-03
1 75200U 22761LX  26037.47805556  .00000000  00000+0  00000-0 0  9999
2 75200  75.0000  96.0000 0000000   0.0000 276.0000 12.65579224    12
CTC1_L_00420009-04
1 75201U 26104EY  26037.47805556  .00000000  00000+0  00000-0 0  9995
2 75201  75.0000  96.0000 0000000   0.0000   6.0000 12.65579224    14
CTC1_L_00420010-01
1 75202U 26945NV  26037.47805556  .00000000  00000+0  00000-0 0  9999
2 75202  75.0000 108.0000 0000000   0.0000 108.0000 12.65579224    12
CTC1_L_00420010-02
1 75203U 26205VO  26037.47805556  .00000000  00000+0  00000-0 0  9999
2 75203  75.0000 108.0000 0000000   0.0000 198.0000 12.65579224    12
CTC1_L_00420010-03
1 75204U 25069OB  26037.47805556  .00000000  00000+0  00000-0 0  9997
2 75204  75.0000 108.0000 0000000   0.0000 288.0000 12.65579224    13
CTC1_L_00420010-04
1 75205U 25234JN  26037.47805556  .00000000  00000+0  00000-0 0  9992
2 75205  75.0000 108.0000 0000000   0.0000  18.0000 12.65579224    15
CTC1_L_00420011-01
1 75206U 26790VG  26037.47805556  .00000000  00000+0  00000-0 0  9991
2 75206  75.0000 120.0000 0000000   0.0000 120.0000 12.65579224    14
CTC1_L_00420011-02
1 75207U 23778PN  26037.47805556  .00000000  00000+0  00000-0 0  9995
2 75207  75.0000 120.0000 0000000   0.0000 210.0000 12.65579224    15
CTC1_L_00420011-03
1 75208U 25696AZ  26037.47805556  .00000000  00000+0  00000-0 0  9997
2 75208  75.0000 120.0000 0000000   0.0000 300.0000 12.65579224    16
CTC1_L_00420011-04
1 75209U 24294VS  26037.47805556  .00000000  00000+0  00000-0 0  9991
2 75209  75.0000 120.0000 0000000   0.0000  30.0000 12.65579224    17
CTC1_L_00420012-01
1 75210U 23181LG  26037.47805556  .00000000  00000+0  00000-0 0  9997
2 75210  75.0000 132.0000 0000000   0.0000 132.0000 12.65579224    15
CTC1_L_00420012-02
1 75211U 22107AL  26037.47805556  .00000000  00000+0  00000-0 0  9995
2 75211  75.0000 132.0000 0000000   0.0000 222.0000 12.65579224    16
CTC1_L_00420012-03
1 75212U 24449BV  26037.47805556  .00000000  00000+0  00000-0 0  9997
2 75212  75.0000 132.0000 0000000   0.0000 312.0000 12.65579224    17
CTC1_L_00420012-04
1 75213U 25477GV  26037.47805556  .00000000  00000+0  00000-0 0  9990
2 75213  75.0000 132.0000 0000000   0.0000  42.0000 12.65579224    18
CTC1_L_00420013-01
1 75214U 25370JH  26037.47805556  .00000000  00000+0  00000-0 0  9993
2 75214  75.0000 144.0000 0000000   0.0000 144.0000 12.65579224    15
CTC1_L_00420013-02
1 75215U 26011AG  26037.47805556  .00000000  00000+0  00000-0 0  9997
2 75215  75.0000 144.0000 0000000   0.0000 234.0000 12.65579224    16
CTC1_L_00420013-03
1 75216U 24175AU  26037.47805556  .00000000  00000+0  00000-0 0  9997
2 75216  75.0000 144.0000 0000000   0.0000 324.0000 12.65579224    17
CTC1_L_00420013-04
1 75217U 24272RO  26037.47805556  .00000000  00000+0  00000-0 0  9996
2 75217  75.0000 144.0000 0000000   0.0000  54.0000 12.65579224    18
CTC1_L_00420014-01
1 75218U 25362IM  26037.47805556  .00000000  00000+0  00000-0 0  9998
2 75218  75.0000 156.0000 0000000   0.0000 156.0000 12.65579224    15
CTC1_L_00420014-02
1 75219U 22946DS  26037.47805556  .00000000  00000+0  00000-0 0  9994
2 75219  75.0000 156.0000 0000000   0.0000 246.0000 12.65579224    16
CTC1_L_00420014-03
1 75220U 24419TF  26037.47805556  .00000000  00000+0  00000-0 0  9993
2 75220  75.0000 156.0000 0000000   0.0000 336.0000 12.65579224    18
CTC1_L_00420014-04
1 75221U 25469KC  26037.47805556  .00000000  00000+0  00000-0 0  9990
2 75221  75.0000 156.0000 0000000   0.0000  66.0000 12.65579224    19
CTC1_L_00420015-01
1 75222U 26978TJ  26037.47805556  .00000000  00000+0  00000-0 0  9997
2 75222  75.0000 168.0000 0000000   0.0000 168.0000 12.65579224    16
CTC1_L_00420015-02
1 75223U 25555OD  26037.47805556  .00000000  00000+0  00000-0 0  9998
2 75223  75.0000 168.0000 0000000   0.0000 258.0000 12.65579224    17
CTC1_L_00420015-03
1 75224U 25809QL  26037.47805556  .00000000  00000+0  00000-0 0  9991
2 75224  75.0000 168.0000 0000000   0.0000 348.0000 12.65579224    18
CTC1_L_00420015-04
1 75225U 22537WQ  26037.47805556  .00000000  00000+0  00000-0 0  9997
2 75225  75.0000 168.0000 0000000   0.0000  78.0000 12.65579224    19
CTC1_L_00420016-01
1 75226U 24311FG  26037.47805556  .00000000  00000+0  00000-0 0  9990
2 75226  75.0000 180.0000 0000000   0.0000 180.0000 12.65579224    18
CTC1_L_00420016-02
1 75227U 23382UC  26037.47805556  .00000000  00000+0  00000-0 0  9998
2 75227  75.0000 180.0000 0000000   0.0000 270.0000 12.65579224    19
